NORAD_CAT_ID,OBJECT_NAME,OBJECT_TYPE,EPOCH,MEAN_MOTION,ECCENTRICITY,INCLINATION,RA_OF_ASC_NODE,ARG_OF_PERICENTER,MEAN_ANOMALY,BSTAR,MEAN_MOTION_DOT,MEAN_MOTION_DDOT,TLE_LINE0,TLE_LINE1,TLE_LINE2,SEMIMAJOR_AXIS,PERIOD,APOGEE,PERIGEE,DECAYED
53257.0,STARLINK-4144,PAYLOAD,2023-11-07 12:11:38,15.08809626,0.0001537,53.2165,64.1997,83.0192,277.0975,-0.00018362,-3.207e-05,0.0,0 STARLINK-4144,1 53257U 22086R   23311.50808604 -.00003207  00000-0 -18362-3 0  9998,2 53257  53.2165  64.1997 0001537  83.0192 277.0975 15.08809626 72080,6917.973,95.439,540.902,538.775,0.0
53257.0,STARLINK-4144,PAYLOAD,2023-11-07 13:47:01,15.0881035,0.0001279,53.216,63.902,86.1661,273.9477,-0.00021985,-3.782e-05,0.0,0 STARLINK-4144,1 53257U 22086R   23311.57432595 -.00003782  00000-0 -21985-3 0  9990,2 53257  53.2160  63.9020 0001279  86.1661 273.9477 15.08810350 72276,6917.971,95.439,540.721,538.951,0.0
53257.0,STARLINK-4144,PAYLOAD,2023-11-08 00:54:43,15.088273,0.0001218,53.2176,61.8202,85.0933,275.0198,0.00030066,4.499e-05,0.0,0 STARLINK-4144,1 53257U 22086R   23312.03800678  .00004499  00000-0  30066-3 0  9997,2 53257  53.2176  61.8202 0001218  85.0933 275.0198 15.08827300 72169,6917.919,95.438,540.627,538.942,0.0
53257.0,STARLINK-4144,PAYLOAD,2023-11-08 13:37:48,15.08845877,0.0001833,53.2179,59.4406,69.2416,290.8772,0.0010639,0.00016687,0.0,0 STARLINK-4144,1 53257U 22086R   23312.56792779  .00016687  00000-0  10639-2 0  9992,2 53257  53.2179  59.4406 0001833  69.2416 290.8772 15.08845877 72425,6917.862,95.437,540.995,538.459,0.0
53257.0,STARLINK-4144,PAYLOAD,2023-11-09 11:53:11,15.08849807,0.0001436,53.2191,55.28,98.5896,261.5259,0.00035564,5.378e-05,0.0,0 STARLINK-4144,1 53257U 22086R   23313.49527677  .00005378  00000-0  35564-3 0  9998,2 53257  53.2191  55.2800 0001436  98.5896 261.5259 15.08849807 72384,6917.85,95.437,540.709,538.722,0.0
53257.0,STARLINK-4144,PAYLOAD,2023-11-09 13:28:34,15.08853939,0.000158,53.2193,54.9801,109.1032,251.0131,0.00030236,4.529e-05,0.0,0 STARLINK-4144,1 53257U 22086R   23313.56151406  .00004529  00000-0  30236-3 0  9997,2 53257  53.2193  54.9801 0001580 109.1032 251.0131 15.08853939 72579,6917.838,95.437,540.796,538.61,0.0
53257.0,STARLINK-4144,PAYLOAD,2023-11-10 11:43:58,15.08852631,0.0001437,53.2178,50.8197,57.234,302.879,-4.0331e-05,-9.3e-06,0.0,0 STARLINK-4144,1 53257U 22086R   23314.48887087 -.00000930  00000-0 -40331-4 0  9992,2 53257  53.2178  50.8197 0001437  57.2340 302.8790 15.08852631 72531,6917.842,95.437,540.701,538.713,0.0
53257.0,STARLINK-4144,PAYLOAD,2023-11-10 13:19:20,15.08867584,0.0001068,53.2171,50.5191,104.6706,255.4404,8.584e-05,1.08e-05,0.0,0 STARLINK-4144,1 53257U 22086R   23314.55510008  .00001080  00000-0  85840-4 0  9995,2 53257  53.2171  50.5191 0001068 104.6706 255.4404 15.08867584 72727,6917.796,95.436,540.4,538.922,0.0
53257.0,STARLINK-4144,PAYLOAD,2023-11-11 11:34:45,15.08838972,0.0001304,53.2183,46.3554,105.4637,254.6499,-1.2561e-05,-4.88e-06,0.0,0 STARLINK-4144,1 53257U 22086R   23315.48247437 -.00000488  00000-0 -12561-4 0  9994,2 53257  53.2183  46.3554 0001304 105.4637 254.6499 15.08838972 72680,6917.884,95.438,540.651,538.846,0.0
53257.0,STARLINK-4144,PAYLOAD,2023-11-11 13:10:09,15.08838055,0.0001207,53.2184,46.0599,87.8666,272.2464,-9.7789e-06,-4.43e-06,0.0,0 STARLINK-4144,1 53257U 22086R   23315.54871553 -.00000443  00000-0 -97789-5 0  9990,2 53257  53.2184  46.0599 0001207  87.8666 272.2464 15.08838055 72875,6917.886,95.438,540.586,538.916,0.0
53257.0,STARLINK-4144,PAYLOAD,2023-11-12 13:00:55,15.08846713,0.0001108,53.2177,41.6003,76.0835,284.028,0.0001416,1.967e-05,0.0,0 STARLINK-4144,1 53257U 22086R   23316.54230914  .00001967  00000-0  14160-3 0  9991,2 53257  53.2177  41.6003 0001108  76.0835 284.0280 15.08846713 73021,6917.86,95.437,540.491,538.958,0.0
53257.0,STARLINK-4144,PAYLOAD,2023-11-13 11:16:19,15.088403,0.0001331,53.2178,37.4383,78.5536,281.5606,0.00021009,3.057e-05,0.0,0 STARLINK-4144,1 53257U 22086R   23317.46967134  .00003057  00000-0  21009-3 0  9996,2 53257  53.2178  37.4383 0001331  78.5536 281.5606 15.08840300 72983,6917.879,95.438,540.665,538.824,0.0
53257.0,STARLINK-4144,PAYLOAD,2023-11-13 22:24:01,15.08840453,0.0001202,53.2185,35.3563,80.6328,279.48,0.00014055,1.95e-05,0.0,0 STARLINK-4144,1 53257U 22086R   23317.93335252  .00001950  00000-0  14055-3 0  9991,2 53257  53.2185  35.3563 0001202  80.6328 279.4800 15.08840453 73238,6917.879,95.438,540.576,538.912,0.0
53257.0,STARLINK-4144,PAYLOAD,2023-11-14 11:07:07,15.08835161,0.0001406,53.2189,32.978,89.6867,270.4286,1.453e-05,-5.7e-07,0.0,0 STARLINK-4144,1 53257U 22086R   23318.46327989 -.00000057  00000-0  14530-4 0  9995,2 53257  53.2189  32.9780 0001406  89.6867 270.4286 15.08835161 73137,6917.895,95.438,540.733,538.788,0.0
53257.0,STARLINK-4144,PAYLOAD,2023-11-14 12:42:30,15.08836836,0.0001395,53.2185,32.6805,85.314,274.8012,3.1769e-05,2.18e-06,0.0,0 STARLINK-4144,1 53257U 22086R   23318.52951853  .00000218  00000-0  31769-4 0  9996,2 53257  53.2185  32.6805 0001395  85.3140 274.8012 15.08836836 73328,6917.89,95.438,540.72,538.79,0.0
53257.0,STARLINK-4144,PAYLOAD,2023-11-14 22:14:48,15.08842756,0.0001392,53.2186,30.8963,85.1158,274.9993,-3.3735e-07,-2.93e-06,0.0,0 STARLINK-4144,1 53257U 22086R   23318.92695416 -.00000293  00000-0 -33735-6 0  9992,2 53257  53.2186  30.8963 0001392  85.1158 274.9993 15.08842756 73381,6917.872,95.437,540.7,538.774,0.0
53257.0,STARLINK-4144,PAYLOAD,2023-11-15 12:33:16,15.08844314,0.0001341,53.2188,28.2206,77.6756,282.4386,4.829e-05,4.81e-06,0.0,0 STARLINK-4144,1 53257U 22086R   23319.52311258  .00000481  00000-0  48290-4 0  9995,2 53257  53.2188  28.2206 0001341  77.6756 282.4386 15.08844314 73470,6917.867,95.437,540.66,538.805,0.0
53257.0,STARLINK-4144,PAYLOAD,2023-11-15 22:05:35,15.08841928,0.0001413,53.2196,26.4342,86.9303,273.185,6.4808e-05,7.44e-06,0.0,0 STARLINK-4144,1 53257U 22086R   23319.92055294  .00000744  00000-0  64808-4 0  9999,2 53257  53.2196  26.4342 0001413  86.9303 273.1850 15.08841928 73539,6917.874,95.437,540.717,538.762,0.0
53257.0,STARLINK-4144,PAYLOAD,2023-11-16 04:27:08,15.08831086,0.0001318,53.2193,25.2454,92.3081,267.8062,0.00021412,3.121e-05,0.0,0 STARLINK-4144,1 53257U 22086R   23320.18551611  .00003121  00000-0  21412-3 0  9998,2 53257  53.2193  25.2454 0001318  92.3081 267.8062 15.08831086 73398,6917.908,95.438,540.684,538.861,0.0
53257.0,STARLINK-4144,PAYLOAD,2023-11-16 09:13:17,15.08836955,0.0001383,53.2193,24.3537,90.1441,269.9709,0.00015022,2.103e-05,0.0,0 STARLINK-4144,1 53257U 22086R   23320.38423417  .00002103  00000-0  15022-3 0  9991,2 53257  53.2193  24.3537 0001383  90.1441 269.9709 15.08836955 73603,6917.89,95.438,540.711,538.798,0.0
53257.0,STARLINK-4144,PAYLOAD,2023-11-17 10:39:27,15.08841209,0.0001473,53.219,19.5953,91.7135,268.4026,6.1696e-05,6.94e-06,0.0,0 STARLINK-4144,1 53257U 22086R   23321.44407378  .00000694  00000-0  61696-4 0  9999,2 53257  53.2190  19.5953 0001473  91.7135 268.4026 15.08841209 73586,6917.877,95.437,540.761,538.723,0.0
53257.0,STARLINK-4144,PAYLOAD,2023-11-18 13:41:01,15.08842034,0.00015,53.2187,14.5399,94.1418,265.9746,3.726e-05,3.05e-06,0.0,0 STARLINK-4144,1 53257U 22086R   23322.57015366  .00000305  00000-0  37260-4 0  9995,2 53257  53.2187  14.5399 0001500  94.1418 265.9746 15.08842034 73930,6917.874,95.437,540.777,538.701,0.0
53257.0,STARLINK-4144,PAYLOAD,2023-11-18 20:02:34,15.08837155,0.0001452,53.2183,13.3495,92.6539,267.4619,2.509e-05,1.11e-06,0.0,0 STARLINK-4144,1 53257U 22086R   23322.83511723  .00000111  00000-0  25090-4 0  9995,2 53257  53.2183  13.3495 0001452  92.6539 267.4619 15.08837155 73791,6917.889,95.438,540.759,538.75,0.0
53257.0,STARLINK-4144,PAYLOAD,2023-11-19 10:21:02,15.08838268,0.0001464,53.219,10.6746,89.5812,270.5347,4.3809e-05,4.09e-06,0.0,0 STARLINK-4144,1 53257U 22086R   23323.43127752  .00000409  00000-0  43809-4 0  9995,2 53257  53.2190  10.6746 0001464  89.5812 270.5347 15.08838268 74060,6917.886,95.438,540.763,538.738,0.0
53257.0,STARLINK-4144,PAYLOAD,2023-11-19 19:53:21,15.08836586,0.0001469,53.2191,8.8925,93.1767,266.9393,3.6615e-05,2.95e-06,0.0,0 STARLINK-4144,1 53257U 22086R   23323.82871955  .00000295  00000-0  36615-4 0  9999,2 53257  53.2191   8.8925 0001469  93.1767 266.9393 15.08836586 74122,6917.891,95.438,540.772,538.74,0.0
53257.0,STARLINK-4144,PAYLOAD,2023-11-20 10:11:49,15.08843944,0.0001366,53.2182,6.2154,94.5204,265.5944,7.2478e-05,8.66e-06,0.0,0 STARLINK-4144,1 53257U 22086R   23324.42487401  .00000866  00000-0  72478-4 0  9996,2 53257  53.2182   6.2154 0001366  94.5204 265.5944 15.08843944 74038,6917.868,95.437,540.678,538.788,0.0
53257.0,STARLINK-4144,PAYLOAD,2023-11-20 11:47:12,15.08847222,0.000141,53.2183,5.9175,91.5713,268.5441,9.6646e-05,1.251e-05,0.0,0 STARLINK-4144,1 53257U 22086R   23324.49111146  .00001251  00000-0  96646-4 0  9995,2 53257  53.2183   5.9175 0001410  91.5713 268.5441 15.08847222 74229,6917.858,95.437,540.699,538.748,0.0
53257.0,STARLINK-4144,PAYLOAD,2023-11-20 19:44:08,15.08843246,0.0001399,53.2183,4.43,87.7309,272.3844,4.1594e-05,3.74e-06,0.0,0 STARLINK-4144,1 53257U 22086R   23324.82231500  .00000374  00000-0  41594-4 0  9996,2 53257  53.2183   4.4300 0001399  87.7309 272.3844 15.08843246 74274,6917.87,95.437,540.703,538.768,0.0
53257.0,STARLINK-4144,PAYLOAD,2023-11-21 11:37:59,15.0884227,0.0001638,53.2195,1.4575,87.6125,272.5054,3.8718e-05,3.28e-06,0.0,0 STARLINK-4144,1 53257U 22086R   23325.48471768  .00000328  00000-0  38718-4 0  9994,2 53257  53.2195   1.4575 0001638  87.6125 272.5054 15.08842270 74191,6917.873,95.437,540.872,538.605,0.0
53257.0,STARLINK-4144,PAYLOAD,2023-11-22 11:28:45,15.08854912,0.0001631,53.2191,356.9949,106.5102,253.6069,0.0001843,2.647e-05,0.0,0 STARLINK-4144,1 53257U 22086R   23326.47830442  .00002647  00000-0  18430-3 0  9996,2 53257  53.2191 356.9949 0001631 106.5102 253.6069 15.08854912 74348,6917.835,95.437,540.828,538.572,0.0
